{"type": "FeatureCollection", "features": [{"type": "Feature", "geometry": {"type": "Point", "coordinates": [86.21585979199115, 22.793887843975206]}, "properties": {"bright_ti4": 328.2312437261273, "bright_ti5": 304.1170520865027, "frp": 47.06, "acq_date": "2026-08-28", "acq_time": "1916", "satellite": "N", "confidence": "nominal", "version": "2.0NRT", "daynight": "D"}}, {"type": "Feature", "geometry": {"type": "Point", "coordinates": [86.20860643052771, 22.826113970199035]}, "properties": {"bright_ti4": 318.0211383768182, "bright_ti5": 300.8630864986038, "frp": 36.21, "acq_date": "2026-08-28", "acq_time": "1916", "satellite": "N", "confidence": "nominal", "version": "2.0NRT", "daynight": "D"}}, {"type": "Feature", "geometry": {"type": "Point", "coordinates": [86.22267649888487, 22.78707980242326]}, "properties": {"bright_ti4": 319.95113023224525, "bright_ti5": 301.7725860466635, "frp": 39.24, "acq_date": "2026-08-28", "acq_time": "1916", "satellite": "N", "confidence": "nominal", "version": "2.0NRT", "daynight": "D"}}, {"type": "Feature", "geometry": {"type": "Point", "coordinates": [86.18545847870159, 22.772723872178478]}, "properties": {"bright_ti4": 319.2834310259557, "bright_ti5": 304.4467064180604, "frp": 48.16, "acq_date": "2026-08-28", "acq_time": "1916", "satellite": "N", "confidence": "high", "version": "2.0NRT", "daynight": "D"}}, {"type": "Feature", "geometry": {"type": "Point", "coordinates": [86.20580877400855, 22.81316643991221]}, "properties": {"bright_ti4": 322.06012204489235, "bright_ti5": 305.27886186014723, "frp": 50.93, "acq_date": "2026-08-28", "acq_time": "1916", "satellite": "N", "confidence": "nominal", "version": "2.0NRT", "daynight": "D"}}, {"type": "Feature", "geometry": {"type": "Point", "coordinates": [86.1494638707852, 22.827838349707378]}, "properties": {"bright_ti4": 324.6400089257845, "bright_ti5": 303.18707779881066, "frp": 43.96, "acq_date": "2026-08-28", "acq_time": "1916", "satellite": "N", "confidence": "high", "version": "2.0NRT", "daynight": "D"}}, {"type": "Feature", "geometry": {"type": "Point", "coordinates": [86.19830489532426, 22.765428949206754]}, "properties": {"bright_ti4": 334.44161172158107, "bright_ti5": 304.24002423033727, "frp": 47.47, "acq_date": "2026-08-28", "acq_time": "1916", "satellite": "N", "confidence": "nominal", "version": "2.0NRT", "daynight": "D"}}, {"type": "Feature", "geometry": {"type": "Point", "coordinates": [86.17695558112759, 22.787045970603486]}, "properties": {"bright_ti4": 326.416042252988, "bright_ti5": 302.46270847363013, "frp": 41.54, "acq_date": "2026-08-28", "acq_time": "1916", "satellite": "N", "confidence": "high", "version": "2.0NRT", "daynight": "D"}}, {"type": "Feature", "geometry": {"type": "Point", "coordinates": [86.1526909349051, 22.797570492622594]}, "properties": {"bright_ti4": 325.3683912695383, "bright_ti5": 303.2692563982489, "frp": 44.23, "acq_date": "2026-08-28", "acq_time": "1916", "satellite": "N", "confidence": "high", "version": "2.0NRT", "daynight": "D"}}, {"type": "Feature", "geometry": {"type": "Point", "coordinates": [86.21047643574968, 22.83322598013952]}, "properties": {"bright_ti4": 324.9165747012337, "bright_ti5": 304.599887393318, "frp": 48.67, "acq_date": "2026-08-28", "acq_time": "1916", "satellite": "N", "confidence": "nominal", "version": "2.0NRT", "daynight": "D"}}, {"type": "Feature", "geometry": {"type": "Point", "coordinates": [86.14397524836093, 22.8182495503975]}, "properties": {"bright_ti4": 326.63264182931994, "bright_ti5": 303.94284440837623, "frp": 46.48, "acq_date": "2026-08-28", "acq_time": "1916", "satellite": "N", "confidence": "high", "version": "2.0NRT", "daynight": "D"}}, {"type": "Feature", "geometry": {"type": "Point", "coordinates": [86.20051653786264, 22.816485085659203]}, "properties": {"bright_ti4": 321.8774218887922, "bright_ti5": 304.0854667823472, "frp": 46.95, "acq_date": "2026-08-28", "acq_time": "1916", "satellite": "N", "confidence": "nominal", "version": "2.0NRT", "daynight": "D"}}, {"type": "Feature", "geometry": {"type": "Point", "coordinates": [73.11397969981277, 22.30687411959529]}, "properties": {"bright_ti4": 320.48692398215707, "bright_ti5": 297.80733045559106, "frp": 26.02, "acq_date": "2026-08-28", "acq_time": "1916", "satellite": "N", "confidence": "nominal", "version": "2.0NRT", "daynight": "D"}}, {"type": "Feature", "geometry": {"type": "Point", "coordinates": [73.1764998857416, 22.30652361064812]}, "properties": {"bright_ti4": 316.84714987016713, "bright_ti5": 299.6200307267853, "frp": 32.07, "acq_date": "2026-08-28", "acq_time": "1916", "satellite": "N", "confidence": "high", "version": "2.0NRT", "daynight": "D"}}, {"type": "Feature", "geometry": {"type": "Point", "coordinates": [73.13039500980626, 22.305920716074542]}, "properties": {"bright_ti4": 313.4874415346123, "bright_ti5": 299.1386401375127, "frp": 30.46, "acq_date": "2026-08-28", "acq_time": "1916", "satellite": "N", "confidence": "nominal", "version": "2.0NRT", "daynight": "D"}}, {"type": "Feature", "geometry": {"type": "Point", "coordinates": [73.18534030732683, 22.290852864372464]}, "properties": {"bright_ti4": 310.1353132806226, "bright_ti5": 299.481049610384, "frp": 31.6, "acq_date": "2026-08-28", "acq_time": "1916", "satellite": "N", "confidence": "nominal", "version": "2.0NRT", "daynight": "D"}}, {"type": "Feature", "geometry": {"type": "Point", "coordinates": [73.12935937577667, 22.2781383892022]}, "properties": {"bright_ti4": 315.52157696973546, "bright_ti5": 297.24149011963794, "frp": 24.14, "acq_date": "2026-08-28", "acq_time": "1916", "satellite": "N", "confidence": "nominal", "version": "2.0NRT", "daynight": "D"}}, {"type": "Feature", "geometry": {"type": "Point", "coordinates": [73.14063868614402, 22.31643135403274]}, "properties": {"bright_ti4": 316.6168095390481, "bright_ti5": 298.59976001075665, "frp": 28.67, "acq_date": "2026-08-28", "acq_time": "1916", "satellite": "N", "confidence": "high", "version": "2.0NRT", "daynight": "D"}}, {"type": "Feature", "geometry": {"type": "Point", "coordinates": [73.10900478607758, 22.252271207313388]}, "properties": {"bright_ti4": 306.6307572958149, "bright_ti5": 297.56597331425604, "frp": 25.22, "acq_date": "2026-08-28", "acq_time": "1916", "satellite": "N", "confidence": "high", "version": "2.0NRT", "daynight": "D"}}, {"type": "Feature", "geometry": {"type": "Point", "coordinates": [73.11523121027132, 22.300104477510338]}, "properties": {"bright_ti4": 315.246910965724, "bright_ti5": 297.8085530513446, "frp": 26.03, "acq_date": "2026-08-28", "acq_time": "1916", "satellite": "N", "confidence": "nominal", "version": "2.0NRT", "daynight": "D"}}, {"type": "Feature", "geometry": {"type": "Point", "coordinates": [72.81015120891479, 21.158102122609648]}, "properties": {"bright_ti4": 309.49967884258126, "bright_ti5": 295.93896193826794, "frp": 19.8, "acq_date": "2026-08-28", "acq_time": "1916", "satellite": "N", "confidence": "high", "version": "2.0NRT", "daynight": "D"}}, {"type": "Feature", "geometry": {"type": "Point", "coordinates": [72.87618976645496, 21.131800590212052]}, "properties": {"bright_ti4": 309.045269295846, "bright_ti5": 294.2278388973373, "frp": 14.09, "acq_date": "2026-08-28", "acq_time": "1916", "satellite": "N", "confidence": "nominal", "version": "2.0NRT", "daynight": "D"}}, {"type": "Feature", "geometry": {"type": "Point", "coordinates": [72.87691763773478, 21.146586996145952]}, "properties": {"bright_ti4": 305.9962834199568, "bright_ti5": 294.66656196515834, "frp": 15.56, "acq_date": "2026-08-28", "acq_time": "1916", "satellite": "N", "confidence": "nominal", "version": "2.0NRT", "daynight": "D"}}, {"type": "Feature", "geometry": {"type": "Point", "coordinates": [72.78963909621535, 21.147224156184517]}, "properties": {"bright_ti4": 306.04445075248384, "bright_ti5": 294.643769679192, "frp": 15.48, "acq_date": "2026-08-28", "acq_time": "1916", "satellite": "N", "confidence": "high", "version": "2.0NRT", "daynight": "D"}}, {"type": "Feature", "geometry": {"type": "Point", "coordinates": [72.81059566241507, 21.140236336479525]}, "properties": {"bright_ti4": 311.3230939972289, "bright_ti5": 296.0806495913405, "frp": 20.27, "acq_date": "2026-08-28", "acq_time": "1916", "satellite": "N", "confidence": "high", "version": "2.0NRT", "daynight": "D"}}, {"type": "Feature", "geometry": {"type": "Point", "coordinates": [72.8519462955951, 21.195851952983524]}, "properties": {"bright_ti4": 308.21120295334913, "bright_ti5": 294.22869313794536, "frp": 14.1, "acq_date": "2026-08-28", "acq_time": "1916", "satellite": "N", "confidence": "nominal", "version": "2.0NRT", "daynight": "D"}}, {"type": "Feature", "geometry": {"type": "Point", "coordinates": [77.43498466015548, 28.678409796891277]}, "properties": {"bright_ti4": 302.40709620060454, "bright_ti5": 294.51475019822834, "frp": 15.05, "acq_date": "2026-08-28", "acq_time": "1916", "satellite": "N", "confidence": "high", "version": "2.0NRT", "daynight": "D"}}, {"type": "Feature", "geometry": {"type": "Point", "coordinates": [77.40298612123328, 28.669399081924453]}, "properties": {"bright_ti4": 309.5318515652158, "bright_ti5": 294.6484977616809, "frp": 15.49, "acq_date": "2026-08-28", "acq_time": "1916", "satellite": "N", "confidence": "nominal", "version": "2.0NRT", "daynight": "D"}}, {"type": "Feature", "geometry": {"type": "Point", "coordinates": [77.38705929685369, 28.678764457217774]}, "properties": {"bright_ti4": 304.51333604559443, "bright_ti5": 295.4877294515732, "frp": 18.29, "acq_date": "2026-08-28", "acq_time": "1916", "satellite": "N", "confidence": "high", "version": "2.0NRT", "daynight": "D"}}, {"type": "Feature", "geometry": {"type": "Point", "coordinates": [77.37228038710298, 28.679091549148144]}, "properties": {"bright_ti4": 298.59719661148586, "bright_ti5": 293.5707368503995, "frp": 11.9, "acq_date": "2026-08-28", "acq_time": "1916", "satellite": "N", "confidence": "high", "version": "2.0NRT", "daynight": "D"}}, {"type": "Feature", "geometry": {"type": "Point", "coordinates": [77.37827299999225, 28.69827352272503]}, "properties": {"bright_ti4": 316.34112799210044, "bright_ti5": 293.8144841201849, "frp": 12.71, "acq_date": "2026-08-28", "acq_time": "1916", "satellite": "N", "confidence": "high", "version": "2.0NRT", "daynight": "D"}}, {"type": "Feature", "geometry": {"type": "Point", "coordinates": [77.4173489401057, 28.67717280523761]}, "properties": {"bright_ti4": 309.30476792415465, "bright_ti5": 294.7797263674613, "frp": 15.93, "acq_date": "2026-08-28", "acq_time": "1916", "satellite": "N", "confidence": "nominal", "version": "2.0NRT", "daynight": "D"}}, {"type": "Feature", "geometry": {"type": "Point", "coordinates": [77.41389114603051, 28.672067240247156]}, "properties": {"bright_ti4": 305.881486835694, "bright_ti5": 293.95126476066554, "frp": 13.17, "acq_date": "2026-08-28", "acq_time": "1916", "satellite": "N", "confidence": "nominal", "version": "2.0NRT", "daynight": "D"}}, {"type": "Feature", "geometry": {"type": "Point", "coordinates": [77.42540361435391, 28.634024908899864]}, "properties": {"bright_ti4": 299.30326491485425, "bright_ti5": 294.60600778302563, "frp": 15.35, "acq_date": "2026-08-28", "acq_time": "1916", "satellite": "N", "confidence": "high", "version": "2.0NRT", "daynight": "D"}}, {"type": "Feature", "geometry": {"type": "Point", "coordinates": [77.43594226346919, 28.648123378383904]}, "properties": {"bright_ti4": 315.7925531701919, "bright_ti5": 294.1717421613755, "frp": 13.91, "acq_date": "2026-08-28", "acq_time": "1916", "satellite": "N", "confidence": "high", "version": "2.0NRT", "daynight": "D"}}, {"type": "Feature", "geometry": {"type": "Point", "coordinates": [77.39302139908949, 28.711601184513764]}, "properties": {"bright_ti4": 303.77999813873913, "bright_ti5": 295.16334916994055, "frp": 17.21, "acq_date": "2026-08-28", "acq_time": "1916", "satellite": "N", "confidence": "high", "version": "2.0NRT", "daynight": "D"}}, {"type": "Feature", "geometry": {"type": "Point", "coordinates": [72.91297897431323, 19.067092228386244]}, "properties": {"bright_ti4": 313.9958230121977, "bright_ti5": 295.8820261961096, "frp": 19.61, "acq_date": "2026-08-28", "acq_time": "1916", "satellite": "N", "confidence": "high", "version": "2.0NRT", "daynight": "D"}}, {"type": "Feature", "geometry": {"type": "Point", "coordinates": [72.88150571292317, 19.05909178381401]}, "properties": {"bright_ti4": 312.3332828405653, "bright_ti5": 297.5222572827455, "frp": 25.07, "acq_date": "2026-08-28", "acq_time": "1916", "satellite": "N", "confidence": "nominal", "version": "2.0NRT", "daynight": "D"}}, {"type": "Feature", "geometry": {"type": "Point", "coordinates": [72.83449106193923, 19.0464607817582]}, "properties": {"bright_ti4": 303.79157148370524, "bright_ti5": 295.9517601815249, "frp": 19.84, "acq_date": "2026-08-28", "acq_time": "1916", "satellite": "N", "confidence": "high", "version": "2.0NRT", "daynight": "D"}}, {"type": "Feature", "geometry": {"type": "Point", "coordinates": [72.91907924908784, 19.104860801945694]}, "properties": {"bright_ti4": 310.6915784336921, "bright_ti5": 296.7708620385449, "frp": 22.57, "acq_date": "2026-08-28", "acq_time": "1916", "satellite": "N", "confidence": "high", "version": "2.0NRT", "daynight": "D"}}, {"type": "Feature", "geometry": {"type": "Point", "coordinates": [72.90720124321109, 19.061592905183076]}, "properties": {"bright_ti4": 309.4169769761755, "bright_ti5": 296.8829678782065, "frp": 22.94, "acq_date": "2026-08-28", "acq_time": "1916", "satellite": "N", "confidence": "nominal", "version": "2.0NRT", "daynight": "D"}}, {"type": "Feature", "geometry": {"type": "Point", "coordinates": [72.85624605159228, 19.1046789611349]}, "properties": {"bright_ti4": 305.5851029648592, "bright_ti5": 297.024468874077, "frp": 23.41, "acq_date": "2026-08-28", "acq_time": "1916", "satellite": "N", "confidence": "nominal", "version": "2.0NRT", "daynight": "D"}}, {"type": "Feature", "geometry": {"type": "Point", "coordinates": [72.91311126721249, 19.042275793241146]}, "properties": {"bright_ti4": 307.8449412548316, "bright_ti5": 295.2455223927468, "frp": 17.49, "acq_date": "2026-08-28", "acq_time": "1916", "satellite": "N", "confidence": "high", "version": "2.0NRT", "daynight": "D"}}, {"type": "Feature", "geometry": {"type": "Point", "coordinates": [77.53964346657145, 13.037456204083746]}, "properties": {"bright_ti4": 302.84166476823884, "bright_ti5": 294.3891799178108, "frp": 14.63, "acq_date": "2026-08-28", "acq_time": "1916", "satellite": "N", "confidence": "nominal", "version": "2.0NRT", "daynight": "D"}}, {"type": "Feature", "geometry": {"type": "Point", "coordinates": [77.57007411862023, 13.047182642606098]}, "properties": {"bright_ti4": 305.7617796225976, "bright_ti5": 293.94739646913206, "frp": 13.16, "acq_date": "2026-08-28", "acq_time": "1916", "satellite": "N", "confidence": "high", "version": "2.0NRT", "daynight": "D"}}, {"type": "Feature", "geometry": {"type": "Point", "coordinates": [77.58776586736128, 12.963182221778652]}, "properties": {"bright_ti4": 297.01587317002725, "bright_ti5": 294.3600402051094, "frp": 14.53, "acq_date": "2026-08-28", "acq_time": "1916", "satellite": "N", "confidence": "nominal", "version": "2.0NRT", "daynight": "D"}}, {"type": "Feature", "geometry": {"type": "Point", "coordinates": [77.57811166092209, 13.019426243564288]}, "properties": {"bright_ti4": 301.56539160361916, "bright_ti5": 293.5736920629577, "frp": 11.91, "acq_date": "2026-08-28", "acq_time": "1916", "satellite": "N", "confidence": "high", "version": "2.0NRT", "daynight": "D"}}, {"type": "Feature", "geometry": {"type": "Point", "coordinates": [77.53310577515572, 13.023898400391554]}, "properties": {"bright_ti4": 304.40346512145254, "bright_ti5": 294.09458737287224, "frp": 13.65, "acq_date": "2026-08-28", "acq_time": "1916", "satellite": "N", "confidence": "high", "version": "2.0NRT", "daynight": "D"}}, {"type": "Feature", "geometry": {"type": "Point", "coordinates": [78.49628642127637, 17.368858404535153]}, "properties": {"bright_ti4": 316.19548089567076, "bright_ti5": 295.7050942150742, "frp": 19.02, "acq_date": "2026-08-28", "acq_time": "1916", "satellite": "N", "confidence": "high", "version": "2.0NRT", "daynight": "D"}}, {"type": "Feature", "geometry": {"type": "Point", "coordinates": [78.48551980423268, 17.322485949138628]}, "properties": {"bright_ti4": 309.83895287476247, "bright_ti5": 295.37365164949637, "frp": 17.91, "acq_date": "2026-08-28", "acq_time": "1916", "satellite": "N", "confidence": "nominal", "version": "2.0NRT", "daynight": "D"}}, {"type": "Feature", "geometry": {"type": "Point", "coordinates": [78.47191143193163, 17.334033959706392]}, "properties": {"bright_ti4": 320.96078807931957, "bright_ti5": 295.02405073498994, "frp": 16.75, "acq_date": "2026-08-28", "acq_time": "1916", "satellite": "N", "confidence": "nominal", "version": "2.0NRT", "daynight": "D"}}, {"type": "Feature", "geometry": {"type": "Point", "coordinates": [78.47673816015553, 17.400436091561296]}, "properties": {"bright_ti4": 305.7665999043444, "bright_ti5": 295.2320809844971, "frp": 17.44, "acq_date": "2026-08-28", "acq_time": "1916", "satellite": "N", "confidence": "high", "version": "2.0NRT", "daynight": "D"}}, {"type": "Feature", "geometry": {"type": "Point", "coordinates": [78.51294286148828, 17.330914399676576]}, "properties": {"bright_ti4": 307.20267530504657, "bright_ti5": 296.2840445032313, "frp": 20.95, "acq_date": "2026-08-28", "acq_time": "1916", "satellite": "N", "confidence": "nominal", "version": "2.0NRT", "daynight": "D"}}, {"type": "Feature", "geometry": {"type": "Point", "coordinates": [78.51677389537761, 17.380601582070003]}, "properties": {"bright_ti4": 320.8112109221435, "bright_ti5": 295.8536006715096, "frp": 19.51, "acq_date": "2026-08-28", "acq_time": "1916", "satellite": "N", "confidence": "nominal", "version": "2.0NRT", "daynight": "D"}}, {"type": "Feature", "geometry": {"type": "Point", "coordinates": [88.35258820863736, 22.55741840434072]}, "properties": {"bright_ti4": 313.3374485171636, "bright_ti5": 298.2852567730558, "frp": 27.62, "acq_date": "2026-08-28", "acq_time": "1916", "satellite": "N", "confidence": "high", "version": "2.0NRT", "daynight": "D"}}, {"type": "Feature", "geometry": {"type": "Point", "coordinates": [88.33366623629976, 22.544783956295134]}, "properties": {"bright_ti4": 306.2152203055971, "bright_ti5": 297.0194889187222, "frp": 23.4, "acq_date": "2026-08-28", "acq_time": "1916", "satellite": "N", "confidence": "high", "version": "2.0NRT", "daynight": "D"}}, {"type": "Feature", "geometry": {"type": "Point", "coordinates": [88.31665588569551, 22.53052780798541]}, "properties": {"bright_ti4": 317.2918106547828, "bright_ti5": 301.4798332632338, "frp": 38.27, "acq_date": "2026-08-28", "acq_time": "1916", "satellite": "N", "confidence": "nominal", "version": "2.0NRT", "daynight": "D"}}, {"type": "Feature", "geometry": {"type": "Point", "coordinates": [88.32438719329711, 22.551033467392408]}, "properties": {"bright_ti4": 322.77625758022134, "bright_ti5": 301.33374181994753, "frp": 37.78, "acq_date": "2026-08-28", "acq_time": "1916", "satellite": "N", "confidence": "nominal", "version": "2.0NRT", "daynight": "D"}}, {"type": "Feature", "geometry": {"type": "Point", "coordinates": [88.3253613395192, 22.548472008233794]}, "properties": {"bright_ti4": 309.1037446257, "bright_ti5": 299.5869342005299, "frp": 31.96, "acq_date": "2026-08-28", "acq_time": "1916", "satellite": "N", "confidence": "high", "version": "2.0NRT", "daynight": "D"}}, {"type": "Feature", "geometry": {"type": "Point", "coordinates": [88.31533819326272, 22.537464147093587]}, "properties": {"bright_ti4": 316.75832076020555, "bright_ti5": 298.64037688848794, "frp": 28.8, "acq_date": "2026-08-28", "acq_time": "1916", "satellite": "N", "confidence": "nominal", "version": "2.0NRT", "daynight": "D"}}, {"type": "Feature", "geometry": {"type": "Point", "coordinates": [88.3417991096952, 22.559363045683202]}, "properties": {"bright_ti4": 317.54438732798394, "bright_ti5": 300.3671663540568, "frp": 34.56, "acq_date": "2026-08-28", "acq_time": "1916", "satellite": "N", "confidence": "high", "version": "2.0NRT", "daynight": "D"}}, {"type": "Feature", "geometry": {"type": "Point", "coordinates": [88.32814984095965, 22.52434750620128]}, "properties": {"bright_ti4": 327.4469137408525, "bright_ti5": 298.02589665471714, "frp": 26.75, "acq_date": "2026-08-28", "acq_time": "1916", "satellite": "N", "confidence": "high", "version": "2.0NRT", "daynight": "D"}}, {"type": "Feature", "geometry": {"type": "Point", "coordinates": [88.35162624257032, 22.57712326517428]}, "properties": {"bright_ti4": 315.89434264662, "bright_ti5": 301.8257772170563, "frp": 39.42, "acq_date": "2026-08-28", "acq_time": "1916", "satellite": "N", "confidence": "nominal", "version": "2.0NRT", "daynight": "D"}}, {"type": "Feature", "geometry": {"type": "Point", "coordinates": [80.98334585537886, 26.81016719029037]}, "properties": {"bright_ti4": 314.3034168449385, "bright_ti5": 297.79380243152167, "frp": 25.98, "acq_date": "2026-08-28", "acq_time": "1916", "satellite": "N", "confidence": "nominal", "version": "2.0NRT", "daynight": "D"}}, {"type": "Feature", "geometry": {"type": "Point", "coordinates": [80.98435749515978, 26.80991131415799]}, "properties": {"bright_ti4": 315.67237057243113, "bright_ti5": 298.04016132881554, "frp": 26.8, "acq_date": "2026-08-28", "acq_time": "1916", "satellite": "N", "confidence": "nominal", "version": "2.0NRT", "daynight": "D"}}, {"type": "Feature", "geometry": {"type": "Point", "coordinates": [80.96424832759956, 26.877947754077134]}, "properties": {"bright_ti4": 310.15503505701355, "bright_ti5": 296.9695345916188, "frp": 23.23, "acq_date": "2026-08-28", "acq_time": "1916", "satellite": "N", "confidence": "high", "version": "2.0NRT", "daynight": "D"}}, {"type": "Feature", "geometry": {"type": "Point", "coordinates": [80.95142228701904, 26.853606803594765]}, "properties": {"bright_ti4": 319.6634193623421, "bright_ti5": 297.3835756984258, "frp": 24.61, "acq_date": "2026-08-28", "acq_time": "1916", "satellite": "N", "confidence": "high", "version": "2.0NRT", "daynight": "D"}}, {"type": "Feature", "geometry": {"type": "Point", "coordinates": [80.92664633175009, 26.863956327123713]}, "properties": {"bright_ti4": 310.1963328474379, "bright_ti5": 297.2335434524266, "frp": 24.11, "acq_date": "2026-08-28", "acq_time": "1916", "satellite": "N", "confidence": "nominal", "version": "2.0NRT", "daynight": "D"}}, {"type": "Feature", "geometry": {"type": "Point", "coordinates": [80.92325699405289, 26.84168893685949]}, "properties": {"bright_ti4": 301.536839633272, "bright_ti5": 295.5236879947116, "frp": 18.41, "acq_date": "2026-08-28", "acq_time": "1916", "satellite": "N", "confidence": "high", "version": "2.0NRT", "daynight": "D"}}, {"type": "Feature", "geometry": {"type": "Point", "coordinates": [80.9685743345456, 26.837946407972694]}, "properties": {"bright_ti4": 310.2117343448652, "bright_ti5": 297.13040912398674, "frp": 23.77, "acq_date": "2026-08-28", "acq_time": "1916", "satellite": "N", "confidence": "nominal", "version": "2.0NRT", "daynight": "D"}}, {"type": "Feature", "geometry": {"type": "Point", "coordinates": [73.84809104283, 18.56163480195382]}, "properties": {"bright_ti4": 315.4471129585272, "bright_ti5": 295.7360321081832, "frp": 19.12, "acq_date": "2026-08-28", "acq_time": "1916", "satellite": "N", "confidence": "nominal", "version": "2.0NRT", "daynight": "D"}}, {"type": "Feature", "geometry": {"type": "Point", "coordinates": [73.8804391827947, 18.53525873405601]}, "properties": {"bright_ti4": 308.6098666637278, "bright_ti5": 296.0556328588408, "frp": 20.19, "acq_date": "2026-08-28", "acq_time": "1916", "satellite": "N", "confidence": "high", "version": "2.0NRT", "daynight": "D"}}, {"type": "Feature", "geometry": {"type": "Point", "coordinates": [73.87348931623103, 18.498815561418247]}, "properties": {"bright_ti4": 302.1883368634567, "bright_ti5": 294.8479129874186, "frp": 16.16, "acq_date": "2026-08-28", "acq_time": "1916", "satellite": "N", "confidence": "high", "version": "2.0NRT", "daynight": "D"}}, {"type": "Feature", "geometry": {"type": "Point", "coordinates": [73.80950957482298, 18.531437974054192]}, "properties": {"bright_ti4": 316.8744495192278, "bright_ti5": 294.6627312385963, "frp": 15.54, "acq_date": "2026-08-28", "acq_time": "1916", "satellite": "N", "confidence": "high", "version": "2.0NRT", "daynight": "D"}}, {"type": "Feature", "geometry": {"type": "Point", "coordinates": [73.81374079300377, 18.563593982270064]}, "properties": {"bright_ti4": 303.0168936663923, "bright_ti5": 295.3261577776198, "frp": 17.75, "acq_date": "2026-08-28", "acq_time": "1916", "satellite": "N", "confidence": "nominal", "version": "2.0NRT", "daynight": "D"}}, {"type": "Feature", "geometry": {"type": "Point", "coordinates": [86.2295114838983, 22.838262410462953]}, "properties": {"bright_ti4": 405.33299701703373, "bright_ti5": 356.24095030954146, "frp": 220.8, "acq_date": "2026-08-28", "acq_time": "1916", "satellite": "N", "confidence": "high", "version": "2.0NRT", "daynight": "D"}}, {"type": "Feature", "geometry": {"type": "Point", "coordinates": [86.15950491975644, 22.81900758953583]}, "properties": {"bright_ti4": 392.00260561158575, "bright_ti5": 344.2655349522977, "frp": 180.89, "acq_date": "2026-08-28", "acq_time": "1916", "satellite": "N", "confidence": "nominal", "version": "2.0NRT", "daynight": "D"}}, {"type": "Feature", "geometry": {"type": "Point", "coordinates": [86.20226317755132, 22.80659851529812]}, "properties": {"bright_ti4": 398.5784477411928, "bright_ti5": 348.93096792501797, "frp": 196.44, "acq_date": "2026-08-28", "acq_time": "1916", "satellite": "N", "confidence": "high", "version": "2.0NRT", "daynight": "D"}}, {"type": "Feature", "geometry": {"type": "Point", "coordinates": [72.84995934415227, 21.189215321557544]}, "properties": {"bright_ti4": 374.04553972747254, "bright_ti5": 336.20063411205683, "frp": 154.0, "acq_date": "2026-08-28", "acq_time": "1916", "satellite": "N", "confidence": "high", "version": "2.0NRT", "daynight": "D"}}, {"type": "Feature", "geometry": {"type": "Point", "coordinates": [72.85578632850405, 21.148770901191078]}, "properties": {"bright_ti4": 359.5330808351554, "bright_ti5": 323.180096543563, "frp": 110.6, "acq_date": "2026-08-28", "acq_time": "1916", "satellite": "N", "confidence": "nominal", "version": "2.0NRT", "daynight": "D"}}, {"type": "Feature", "geometry": {"type": "Point", "coordinates": [81.90018265499694, 24.102738847985155]}, "properties": {"bright_ti4": 292.74324507078256, "bright_ti5": 286.3716225353913, "frp": 6.86, "acq_date": "2026-08-28", "acq_time": "1916", "satellite": "N", "confidence": "nominal", "version": "2.0NRT", "daynight": "D"}}, {"type": "Feature", "geometry": {"type": "Point", "coordinates": [81.8623209645461, 24.15751928824239]}, "properties": {"bright_ti4": 293.38630241610974, "bright_ti5": 286.69315120805487, "frp": 8.47, "acq_date": "2026-08-28", "acq_time": "1916", "satellite": "N", "confidence": "nominal", "version": "2.0NRT", "daynight": "D"}}, {"type": "Feature", "geometry": {"type": "Point", "coordinates": [81.794566989175, 23.88866398812256]}, "properties": {"bright_ti4": 292.5093237882085, "bright_ti5": 286.25466189410423, "frp": 6.27, "acq_date": "2026-08-28", "acq_time": "1916", "satellite": "N", "confidence": "nominal", "version": "2.0NRT", "daynight": "D"}}, {"type": "Feature", "geometry": {"type": "Point", "coordinates": [81.96274242231925, 24.261676478025446]}, "properties": {"bright_ti4": 293.5067150914828, "bright_ti5": 286.7533575457414, "frp": 8.77, "acq_date": "2026-08-28", "acq_time": "1916", "satellite": "N", "confidence": "nominal", "version": "2.0NRT", "daynight": "D"}}, {"type": "Feature", "geometry": {"type": "Point", "coordinates": [82.03179583915174, 24.137811425206426]}, "properties": {"bright_ti4": 293.09999277574434, "bright_ti5": 286.54999638787217, "frp": 7.75, "acq_date": "2026-08-28", "acq_time": "1916", "satellite": "N", "confidence": "nominal", "version": "2.0NRT", "daynight": "D"}}, {"type": "Feature", "geometry": {"type": "Point", "coordinates": [81.98762173847473, 24.168180896345635]}, "properties": {"bright_ti4": 292.54219998616776, "bright_ti5": 286.27109999308385, "frp": 6.36, "acq_date": "2026-08-28", "acq_time": "1916", "satellite": "N", "confidence": "nominal", "version": "2.0NRT", "daynight": "D"}}, {"type": "Feature", "geometry": {"type": "Point", "coordinates": [82.13065614160219, 24.29197892695459]}, "properties": {"bright_ti4": 293.20914084444854, "bright_ti5": 286.60457042222424, "frp": 8.02, "acq_date": "2026-08-28", "acq_time": "1916", "satellite": "N", "confidence": "nominal", "version": "2.0NRT", "daynight": "D"}}, {"type": "Feature", "geometry": {"type": "Point", "coordinates": [82.21032020751447, 23.771087146330224]}, "properties": {"bright_ti4": 293.87345605351203, "bright_ti5": 286.93672802675604, "frp": 9.68, "acq_date": "2026-08-28", "acq_time": "1916", "satellite": "N", "confidence": "nominal", "version": "2.0NRT", "daynight": "D"}}, {"type": "Feature", "geometry": {"type": "Point", "coordinates": [82.05295479998153, 23.773153007001067]}, "properties": {"bright_ti4": 293.0358706489072, "bright_ti5": 286.51793532445356, "frp": 7.59, "acq_date": "2026-08-28", "acq_time": "1916", "satellite": "N", "confidence": "nominal", "version": "2.0NRT", "daynight": "D"}}, {"type": "Feature", "geometry": {"type": "Point", "coordinates": [81.97259077710505, 23.70738161153316]}, "properties": {"bright_ti4": 292.83384045523457, "bright_ti5": 286.41692022761725, "frp": 7.08, "acq_date": "2026-08-28", "acq_time": "1916", "satellite": "N", "confidence": "nominal", "version": "2.0NRT", "daynight": "D"}}, {"type": "Feature", "geometry": {"type": "Point", "coordinates": [81.97512884907913, 23.877215415206454]}, "properties": {"bright_ti4": 291.91819236715287, "bright_ti5": 285.95909618357643, "frp": 4.8, "acq_date": "2026-08-28", "acq_time": "1916", "satellite": "N", "confidence": "nominal", "version": "2.0NRT", "daynight": "D"}}, {"type": "Feature", "geometry": {"type": "Point", "coordinates": [82.25106513730934, 23.881156434865495]}, "properties": {"bright_ti4": 292.5646909679797, "bright_ti5": 286.28234548398984, "frp": 6.41, "acq_date": "2026-08-28", "acq_time": "1916", "satellite": "N", "confidence": "nominal", "version": "2.0NRT", "daynight": "D"}}, {"type": "Feature", "geometry": {"type": "Point", "coordinates": [82.29822079470254, 23.766353046597665]}, "properties": {"bright_ti4": 293.42101934346283, "bright_ti5": 286.7105096717314, "frp": 8.55, "acq_date": "2026-08-28", "acq_time": "1916", "satellite": "N", "confidence": "nominal", "version": "2.0NRT", "daynight": "D"}}, {"type": "Feature", "geometry": {"type": "Point", "coordinates": [82.20213794779656, 23.870345062718425]}, "properties": {"bright_ti4": 293.2434828683123, "bright_ti5": 286.62174143415615, "frp": 8.11, "acq_date": "2026-08-28", "acq_time": "1916", "satellite": "N", "confidence": "nominal", "version": "2.0NRT", "daynight": "D"}}, {"type": "Feature", "geometry": {"type": "Point", "coordinates": [82.09941084166392, 24.299462838284544]}, "properties": {"bright_ti4": 293.761562900977, "bright_ti5": 286.8807814504885, "frp": 9.4, "acq_date": "2026-08-28", "acq_time": "1916", "satellite": "N", "confidence": "nominal", "version": "2.0NRT", "daynight": "D"}}, {"type": "Feature", "geometry": {"type": "Point", "coordinates": [76.23822003933797, 14.75426443619048]}, "properties": {"bright_ti4": 292.11059314564693, "bright_ti5": 286.05529657282347, "frp": 5.28, "acq_date": "2026-08-28", "acq_time": "1916", "satellite": "N", "confidence": "nominal", "version": "2.0NRT", "daynight": "D"}}, {"type": "Feature", "geometry": {"type": "Point", "coordinates": [75.78581312509998, 14.844496834824689]}, "properties": {"bright_ti4": 292.4240517644812, "bright_ti5": 286.2120258822406, "frp": 6.06, "acq_date": "2026-08-28", "acq_time": "1916", "satellite": "N", "confidence": "nominal", "version": "2.0NRT", "daynight": "D"}}, {"type": "Feature", "geometry": {"type": "Point", "coordinates": [76.24638293627854, 14.818922536327738]}, "properties": {"bright_ti4": 292.1574208773256, "bright_ti5": 286.07871043866277, "frp": 5.39, "acq_date": "2026-08-28", "acq_time": "1916", "satellite": "N", "confidence": "nominal", "version": "2.0NRT", "daynight": "D"}}, {"type": "Feature", "geometry": {"type": "Point", "coordinates": [75.70325790047723, 14.721697626296818]}, "properties": {"bright_ti4": 292.4169338045857, "bright_ti5": 286.20846690229286, "frp": 6.04, "acq_date": "2026-08-28", "acq_time": "1916", "satellite": "N", "confidence": "nominal", "version": "2.0NRT", "daynight": "D"}}, {"type": "Feature", "geometry": {"type": "Point", "coordinates": [76.18088908651565, 15.063555106588637]}, "properties": {"bright_ti4": 292.6636152336193, "bright_ti5": 286.3318076168096, "frp": 6.66, "acq_date": "2026-08-28", "acq_time": "1916", "satellite": "N", "confidence": "nominal", "version": "2.0NRT", "daynight": "D"}}, {"type": "Feature", "geometry": {"type": "Point", "coordinates": [75.73433916409195, 15.209645305753844]}, "properties": {"bright_ti4": 290.8142516820457, "bright_ti5": 285.4071258410229, "frp": 2.04, "acq_date": "2026-08-28", "acq_time": "1916", "satellite": "N", "confidence": "nominal", "version": "2.0NRT", "daynight": "D"}}, {"type": "Feature", "geometry": {"type": "Point", "coordinates": [76.16326503946263, 15.256677258103368]}, "properties": {"bright_ti4": 292.5995471197822, "bright_ti5": 286.2997735598911, "frp": 6.5, "acq_date": "2026-08-28", "acq_time": "1916", "satellite": "N", "confidence": "nominal", "version": "2.0NRT", "daynight": "D"}}, {"type": "Feature", "geometry": {"type": "Point", "coordinates": [75.72409077972824, 15.20278813119323]}, "properties": {"bright_ti4": 292.8713739973686, "bright_ti5": 286.43568699868433, "frp": 7.18, "acq_date": "2026-08-28", "acq_time": "1916", "satellite": "N", "confidence": "nominal", "version": "2.0NRT", "daynight": "D"}}, {"type": "Feature", "geometry": {"type": "Point", "coordinates": [76.00271859411579, 14.774954207583386]}, "properties": {"bright_ti4": 291.3844358665543, "bright_ti5": 285.69221793327716, "frp": 3.46, "acq_date": "2026-08-28", "acq_time": "1916", "satellite": "N", "confidence": "nominal", "version": "2.0NRT", "daynight": "D"}}, {"type": "Feature", "geometry": {"type": "Point", "coordinates": [76.21067865985717, 15.07800710674584]}, "properties": {"bright_ti4": 293.0828687116555, "bright_ti5": 286.54143435582773, "frp": 7.71, "acq_date": "2026-08-28", "acq_time": "1916", "satellite": "N", "confidence": "nominal", "version": "2.0NRT", "daynight": "D"}}, {"type": "Feature", "geometry": {"type": "Point", "coordinates": [84.81582489452134, 25.640772655161097]}, "properties": {"bright_ti4": 291.924479718241, "bright_ti5": 285.96223985912053, "frp": 4.81, "acq_date": "2026-08-28", "acq_time": "1916", "satellite": "N", "confidence": "nominal", "version": "2.0NRT", "daynight": "D"}}, {"type": "Feature", "geometry": {"type": "Point", "coordinates": [85.2881228709392, 25.62594281836878]}, "properties": {"bright_ti4": 292.1135866495405, "bright_ti5": 286.05679332477024, "frp": 5.28, "acq_date": "2026-08-28", "acq_time": "1916", "satellite": "N", "confidence": "nominal", "version": "2.0NRT", "daynight": "D"}}, {"type": "Feature", "geometry": {"type": "Point", "coordinates": [85.06978538195652, 25.232700188994777]}, "properties": {"bright_ti4": 291.2942547876984, "bright_ti5": 285.6471273938492, "frp": 3.24, "acq_date": "2026-08-28", "acq_time": "1916", "satellite": "N", "confidence": "nominal", "version": "2.0NRT", "daynight": "D"}}, {"type": "Feature", "geometry": {"type": "Point", "coordinates": [85.12574697106037, 25.73048742682009]}, "properties": {"bright_ti4": 292.77975767077055, "bright_ti5": 286.3898788353853, "frp": 6.95, "acq_date": "2026-08-28", "acq_time": "1916", "satellite": "N", "confidence": "nominal", "version": "2.0NRT", "daynight": "D"}}, {"type": "Feature", "geometry": {"type": "Point", "coordinates": [84.8101199373282, 25.25503260349452]}, "properties": {"bright_ti4": 293.1426375932548, "bright_ti5": 286.5713187966274, "frp": 7.86, "acq_date": "2026-08-28", "acq_time": "1916", "satellite": "N", "confidence": "nominal", "version": "2.0NRT", "daynight": "D"}}, {"type": "Feature", "geometry": {"type": "Point", "coordinates": [85.17044856900485, 25.475136385475093]}, "properties": {"bright_ti4": 291.54419807096826, "bright_ti5": 285.77209903548413, "frp": 3.86, "acq_date": "2026-08-28", "acq_time": "1916", "satellite": "N", "confidence": "nominal", "version": "2.0NRT", "daynight": "D"}}, {"type": "Feature", "geometry": {"type": "Point", "coordinates": [84.78707815279903, 25.543447889975184]}, "properties": {"bright_ti4": 292.24860452725085, "bright_ti5": 286.12430226362545, "frp": 5.62, "acq_date": "2026-08-28", "acq_time": "1916", "satellite": "N", "confidence": "nominal", "version": "2.0NRT", "daynight": "D"}}, {"type": "Feature", "geometry": {"type": "Point", "coordinates": [85.04681032948453, 25.38080557950883]}, "properties": {"bright_ti4": 293.45652932442255, "bright_ti5": 286.72826466221125, "frp": 8.64, "acq_date": "2026-08-28", "acq_time": "1916", "satellite": "N", "confidence": "nominal", "version": "2.0NRT", "daynight": "D"}}, {"type": "Feature", "geometry": {"type": "Point", "coordinates": [85.26435664581732, 25.589539893147187]}, "properties": {"bright_ti4": 293.2537779332576, "bright_ti5": 286.62688896662877, "frp": 8.13, "acq_date": "2026-08-28", "acq_time": "1916", "satellite": "N", "confidence": "nominal", "version": "2.0NRT", "daynight": "D"}}, {"type": "Feature", "geometry": {"type": "Point", "coordinates": [84.94242063444446, 25.505011643068165]}, "properties": {"bright_ti4": 292.70670169054597, "bright_ti5": 286.353350845273, "frp": 6.77, "acq_date": "2026-08-28", "acq_time": "1916", "satellite": "N", "confidence": "nominal", "version": "2.0NRT", "daynight": "D"}}, {"type": "Feature", "geometry": {"type": "Point", "coordinates": [84.78045676592366, 25.27153051571865]}, "properties": {"bright_ti4": 293.96081004810105, "bright_ti5": 286.9804050240505, "frp": 9.9, "acq_date": "2026-08-28", "acq_time": "1916", "satellite": "N", "confidence": "nominal", "version": "2.0NRT", "daynight": "D"}}, {"type": "Feature", "geometry": {"type": "Point", "coordinates": [84.95674192820881, 25.3828227622565]}, "properties": {"bright_ti4": 292.52815247465367, "bright_ti5": 286.26407623732683, "frp": 6.32, "acq_date": "2026-08-28", "acq_time": "1916", "satellite": "N", "confidence": "nominal", "version": "2.0NRT", "daynight": "D"}}, {"type": "Feature", "geometry": {"type": "Point", "coordinates": [83.94708653795134, 20.080777470450958]}, "properties": {"bright_ti4": 293.8664562980946, "bright_ti5": 286.9332281490473, "frp": 9.67, "acq_date": "2026-08-28", "acq_time": "1916", "satellite": "N", "confidence": "nominal", "version": "2.0NRT", "daynight": "D"}}, {"type": "Feature", "geometry": {"type": "Point", "coordinates": [84.05298374904541, 19.830577116018176]}, "properties": {"bright_ti4": 292.9333049552405, "bright_ti5": 286.46665247762024, "frp": 7.33, "acq_date": "2026-08-28", "acq_time": "1916", "satellite": "N", "confidence": "nominal", "version": "2.0NRT", "daynight": "D"}}, {"type": "Feature", "geometry": {"type": "Point", "coordinates": [83.95104002649411, 19.72163590056642]}, "properties": {"bright_ti4": 292.7060927096083, "bright_ti5": 286.3530463548042, "frp": 6.77, "acq_date": "2026-08-28", "acq_time": "1916", "satellite": "N", "confidence": "nominal", "version": "2.0NRT", "daynight": "D"}}, {"type": "Feature", "geometry": {"type": "Point", "coordinates": [84.04347475987326, 19.835355720922525]}, "properties": {"bright_ti4": 295.1497849299436, "bright_ti5": 287.5748924649718, "frp": 12.87, "acq_date": "2026-08-28", "acq_time": "1916", "satellite": "N", "confidence": "nominal", "version": "2.0NRT", "daynight": "D"}}, {"type": "Feature", "geometry": {"type": "Point", "coordinates": [84.08876908932072, 20.121201308666222]}, "properties": {"bright_ti4": 293.87816676196076, "bright_ti5": 286.9390833809804, "frp": 9.7, "acq_date": "2026-08-28", "acq_time": "1916", "satellite": "N", "confidence": "nominal", "version": "2.0NRT", "daynight": "D"}}, {"type": "Feature", "geometry": {"type": "Point", "coordinates": [84.17245933319157, 19.889728491094427]}, "properties": {"bright_ti4": 293.7482605195323, "bright_ti5": 286.87413025976616, "frp": 9.37, "acq_date": "2026-08-28", "acq_time": "1916", "satellite": "N", "confidence": "nominal", "version": "2.0NRT", "daynight": "D"}}, {"type": "Feature", "geometry": {"type": "Point", "coordinates": [84.07560748856463, 19.958850917107934]}, "properties": {"bright_ti4": 294.4510812261875, "bright_ti5": 287.22554061309376, "frp": 11.13, "acq_date": "2026-08-28", "acq_time": "1916", "satellite": "N", "confidence": "nominal", "version": "2.0NRT", "daynight": "D"}}, {"type": "Feature", "geometry": {"type": "Point", "coordinates": [84.14202341308933, 20.007643546764054]}, "properties": {"bright_ti4": 295.6781389812767, "bright_ti5": 287.83906949063834, "frp": 14.2, "acq_date": "2026-08-28", "acq_time": "1916", "satellite": "N", "confidence": "nominal", "version": "2.0NRT", "daynight": "D"}}, {"type": "Feature", "geometry": {"type": "Point", "coordinates": [78.00217975510986, 30.752634318377115]}, "properties": {"bright_ti4": 294.8732161425386, "bright_ti5": 287.4366080712693, "frp": 12.18, "acq_date": "2026-08-28", "acq_time": "1916", "satellite": "N", "confidence": "nominal", "version": "2.0NRT", "daynight": "D"}}, {"type": "Feature", "geometry": {"type": "Point", "coordinates": [77.88867041504652, 30.6799222464583]}, "properties": {"bright_ti4": 294.66367393506863, "bright_ti5": 287.33183696753434, "frp": 11.66, "acq_date": "2026-08-28", "acq_time": "1916", "satellite": "N", "confidence": "nominal", "version": "2.0NRT", "daynight": "D"}}, {"type": "Feature", "geometry": {"type": "Point", "coordinates": [77.76951403460116, 30.496484987910453]}, "properties": {"bright_ti4": 294.1187702486514, "bright_ti5": 287.0593851243257, "frp": 10.3, "acq_date": "2026-08-28", "acq_time": "1916", "satellite": "N", "confidence": "nominal", "version": "2.0NRT", "daynight": "D"}}, {"type": "Feature", "geometry": {"type": "Point", "coordinates": [77.73334075014412, 30.705195926623677]}, "properties": {"bright_ti4": 295.33246818905076, "bright_ti5": 287.66623409452535, "frp": 13.33, "acq_date": "2026-08-28", "acq_time": "1916", "satellite": "N", "confidence": "nominal", "version": "2.0NRT", "daynight": "D"}}, {"type": "Feature", "geometry": {"type": "Point", "coordinates": [77.80379666711495, 30.400478024300927]}, "properties": {"bright_ti4": 294.57100101315547, "bright_ti5": 287.2855005065777, "frp": 11.43, "acq_date": "2026-08-28", "acq_time": "1916", "satellite": "N", "confidence": "nominal", "version": "2.0NRT", "daynight": "D"}}, {"type": "Feature", "geometry": {"type": "Point", "coordinates": [77.70880970613604, 30.645615540035053]}, "properties": {"bright_ti4": 295.5484377003721, "bright_ti5": 287.77421885018606, "frp": 13.87, "acq_date": "2026-08-28", "acq_time": "1916", "satellite": "N", "confidence": "nominal", "version": "2.0NRT", "daynight": "D"}}]}