{"type": "FeatureCollection", "features": [{"type": "Feature", "geometry": {"type": "Polygon", "coordinates": [[[86.10000000000001, 22.752000000000002], [86.26, 22.752000000000002], [86.26, 22.848], [86.10000000000001, 22.848], [86.10000000000001, 22.752000000000002]]]}, "properties": {"osm_id": "mock_Jamshedpur_Steel_Plant_Complex", "name": "Jamshedpur Steel Plant Complex", "landuse": "industrial", "industrial": "factory"}}, {"type": "Feature", "geometry": {"type": "Polygon", "coordinates": [[[73.09, 22.264], [73.21000000000001, 22.264], [73.21000000000001, 22.336000000000002], [73.09, 22.336000000000002], [73.09, 22.264]]]}, "properties": {"osm_id": "mock_Vadodara_GIDC_Petrochemical", "name": "Vadodara GIDC Petrochemical", "landuse": "industrial", "industrial": "factory"}}, {"type": "Feature", "geometry": {"type": "Polygon", "coordinates": [[[72.78, 21.14], [72.88, 21.14], [72.88, 21.200000000000003], [72.78, 21.200000000000003], [72.78, 21.14]]]}, "properties": {"osm_id": "mock_Surat_Industrial_Estate", "name": "Surat Industrial Estate", "landuse": "industrial", "industrial": "factory"}}, {"type": "Feature", "geometry": {"type": "Polygon", "coordinates": [[[77.35000000000001, 28.628], [77.49, 28.628], [77.49, 28.712000000000003], [77.35000000000001, 28.712000000000003], [77.35000000000001, 28.628]]]}, "properties": {"osm_id": "mock_Delhi_Okhla_Industrial_Area", "name": "Delhi Okhla Industrial Area", "landuse": "industrial", "industrial": "factory"}}, {"type": "Feature", "geometry": {"type": "Polygon", "coordinates": [[[72.82, 19.043999999999997], [72.94, 19.043999999999997], [72.94, 19.116], [72.82, 19.116], [72.82, 19.043999999999997]]]}, "properties": {"osm_id": "mock_Mumbai_Thane_Industrial_Belt", "name": "Mumbai Thane Industrial Belt", "landuse": "industrial", "industrial": "factory"}}, {"type": "Feature", "geometry": {"type": "Polygon", "coordinates": [[[77.52, 12.97], [77.61999999999999, 12.97], [77.61999999999999, 13.03], [77.52, 13.03], [77.52, 12.97]]]}, "properties": {"osm_id": "mock_Bangalore_Industrial_Area", "name": "Bangalore Industrial Area", "landuse": "industrial", "industrial": "factory"}}, {"type": "Feature", "geometry": {"type": "Polygon", "coordinates": [[[78.42, 17.334], [78.54, 17.334], [78.54, 17.406000000000002], [78.42, 17.406000000000002], [78.42, 17.334]]]}, "properties": {"osm_id": "mock_Hyderabad_Patancheru_Industrial", "name": "Hyderabad Patancheru Industrial", "landuse": "industrial", "industrial": "factory"}}, {"type": "Feature", "geometry": {"type": "Polygon", "coordinates": [[[88.29, 22.528], [88.42999999999999, 22.528], [88.42999999999999, 22.612000000000002], [88.29, 22.612000000000002], [88.29, 22.528]]]}, "properties": {"osm_id": "mock_Kolkata_Industrial_Belt", "name": "Kolkata Industrial Belt", "landuse": "industrial", "industrial": "factory"}}, {"type": "Feature", "geometry": {"type": "Polygon", "coordinates": [[[80.9, 26.82], [81.0, 26.82], [81.0, 26.880000000000003], [80.9, 26.880000000000003], [80.9, 26.82]]]}, "properties": {"osm_id": "mock_Kanpur_Industrial_Area", "name": "Kanpur Industrial Area", "landuse": "industrial", "industrial": "factory"}}, {"type": "Feature", "geometry": {"type": "Polygon", "coordinates": [[[73.78999999999999, 18.483999999999998], [73.91, 18.483999999999998], [73.91, 18.556], [73.78999999999999, 18.556], [73.78999999999999, 18.483999999999998]]]}, "properties": {"osm_id": "mock_Pune_Pimpri_Industrial", "name": "Pune Pimpri Industrial", "landuse": "industrial", "industrial": "factory"}}, {"type": "Feature", "geometry": {"type": "Polygon", "coordinates": [[[85.83, 20.43], [85.92999999999999, 20.43], [85.92999999999999, 20.490000000000002], [85.83, 20.490000000000002], [85.83, 20.43]]]}, "properties": {"osm_id": "mock_Bhubaneswar_Industrial", "name": "Bhubaneswar Industrial", "landuse": "industrial", "industrial": "factory"}}, {"type": "Feature", "geometry": {"type": "Polygon", "coordinates": [[[72.48, 22.988], [72.61999999999999, 22.988], [72.61999999999999, 23.072000000000003], [72.48, 23.072000000000003], [72.48, 22.988]]]}, "properties": {"osm_id": "mock_Ahmedabad_GIDC_Industrial", "name": "Ahmedabad GIDC Industrial", "landuse": "industrial", "industrial": "factory"}}, {"type": "Feature", "geometry": {"type": "Polygon", "coordinates": [[[76.92, 10.97], [77.02, 10.97], [77.02, 11.03], [76.92, 11.03], [76.92, 10.97]]]}, "properties": {"osm_id": "mock_Coimbatore_Textile_Industrial", "name": "Coimbatore Textile Industrial", "landuse": "industrial", "industrial": "factory"}}, {"type": "Feature", "geometry": {"type": "Polygon", "coordinates": [[[76.97, 28.413999999999998], [77.09, 28.413999999999998], [77.09, 28.486], [76.97, 28.486], [76.97, 28.413999999999998]]]}, "properties": {"osm_id": "mock_Gurgaon_Auto_Industrial", "name": "Gurgaon Auto Industrial", "landuse": "industrial", "industrial": "factory"}}, {"type": "Feature", "geometry": {"type": "Polygon", "coordinates": [[[85.05999999999999, 25.576], [85.14, 25.576], [85.14, 25.624000000000002], [85.05999999999999, 25.624000000000002], [85.05999999999999, 25.576]]]}, "properties": {"osm_id": "mock_Hajipur_Industrial_Area", "name": "Hajipur Industrial Area", "landuse": "industrial", "industrial": "factory"}}]}